{
  "generated_at": "2026-07-13T07:11:34Z",
  "source": "CelesTrak SATCAT gp.php?GROUP=active (HEAD cache, no fetch)",
  "schema_version": "1.0",
  "records": [
    {
      "name": "ISS (ZARYA)",
      "norad_id": 25544,
      "intl_designator": "98067-261",
      "line1": "1 25544U 98067A   26186.44376576  .00008907  00000+0  17013-3 0  9993",
      "line2": "2 25544  51.6303 209.7275 0006727 258.7638 101.2595 15.48905966574588",
      "category": "stations"
    }
  ]
}